{
  "type": "FeatureCollection",
  "features": [
    {
      "type": "Feature",
      "geometry": {
        "type": "Polygon",
        "coordinates": [
          [
            [
              1433.0042114258358,
              617.1792640686035
            ],
            [
              1430.4161632217726,
              564.7273872604026
            ],
            [
              1422.6769310156847,
              512.7806501112016
            ],
            [
              1409.8610478443636,
              461.8393280966374
            ],
            [
              1392.0919376686197,
              412.394013995184
            ],
            [
              1369.5407267330995,
              364.9208932110632
            ],
            [
              1342.4245955268439,
              319.8771578490334
            ],
            [
              1311.0046872165226,
              277.6966037039672
            ],
            [
              1275.5835926950465,
              238.785452570431
            ],
            [
              1236.5024364657017,
              203.51844010494054
            ],
            [
              1194.1375914270893,
              172.2352069165011
            ],
            [
              1148.897054195782,
              145.2370276417558
            ],
            [
              1101.2165158763257,
              122.78390950585697
            ],
            [
              1051.5551661175848,
              105.09208831054866
            ],
            [
              1000.3912708653934,
              92.33194596536265
            ],
            [
              948.2175664001379,
              84.6263696164521
            ],
            [
              895.5365140167079,
              82.04956817627294
            ],
            [
              842.8554610480912,
              84.62635765146915
            ],
            [
              790.6817548327376,
              92.33192215062607
            ],
            [
              739.5178566824488,
              105.0920528754074
            ],
            [
              689.8565029055219,
              122.78386279157078
            ],
            [
              642.1759594864882,
              145.2369700982088
            ],
            [
              596.9354161233234,
              172.23513909786917
            ],
            [
              554.5705639796274,
              203.51836266435407
            ],
            [
              515.4893997403981,
              238.78536625368525
            ],
            [
              480.06829638137634,
              277.6965093423396
            ],
            [
              448.6483784909585,
              319.877056351278
            ],
            [
              421.53223705425887,
              364.92078555465883
            ],
            [
              398.981015336588,
              412.39390121692077
            ],
            [
              381.21189393082443,
              461.8392112826316
            ],
            [
              368.3959991896507,
              512.7805303864359
            ],
            [
              360.65675518535824,
              564.7272657778921
            ],
            [
              358.06869506836284,
              617.179141998291
            ],
            [
              360.656743272426,
              669.6310188065501
            ],
            [
              368.39597547851434,
              721.577755955693
            ],
            [
              381.21185864983516,
              772.5190779702571
            ],
            [
              398.98096882552096,
              821.9643920717103
            ],
            [
              421.53217976104116,
              869.4375128558313
            ],
            [
              448.6483109673551,
              914.4812482178611
            ],
            [
              480.0682192776764,
              956.6618023629273
            ],
            [
              515.4893137991523,
              995.5729534964635
            ],
            [
              554.5704700284973,
              1030.839965961954
            ],
            [
              596.9353150671095,
              1062.1231991503932
            ],
            [
              642.1758522984169,
              1089.1213784251968
            ],
            [
              689.8563906178731,
              1111.5744965610957
            ],
            [
              739.517740376614,
              1129.2663177563459
            ],
            [
              790.6816356288055,
              1142.026460101532
            ],
            [
              842.8553400940609,
              1149.7320364505003
            ],
            [
              895.5363924774327,
              1152.3088378906214
            ],
            [
              948.2174454461076,
              1149.7320484154834
            ],
            [
              1000.3911516614612,
              1142.0264839162683
            ],
            [
              1051.55504981175,
              1129.2663531914873
            ],
            [
              1101.2164035886772,
              1111.574543275382
            ],
            [
              1148.8969470077107,
              1089.1214359687438
            ],
            [
              1194.1374903708754,
              1062.1232669690253
            ],
            [
              1236.5023425145714,
              1030.8400434025402
            ],
            [
              1275.583506753801,
              995.5730398132092
            ],
            [
              1311.0046101128225,
              956.6618967245549
            ],
            [
              1342.4245280032403,
              914.4813497156165
            ],
            [
              1369.5406694398816,
              869.4376205122356
            ],
            [
              1392.091891157553,
              821.9645048499737
            ],
            [
              1409.8610125633745,
              772.5191947842628
            ],
            [
              1422.6769073045482,
              721.5778756804586
            ],
            [
              1430.4161513088407,
              669.6311402890606
            ],
            [
              1433.0042114258358,
              617.1792640686035
            ]
          ]
        ]
      },
      "properties": {
        "name": "region",
        "roi_type": "PolygonOfInterest"
      }
    }
  ]
}